{"type": "FeatureCollection", "features": [ {"type": "Feature", "properties": {"norad_id": 66909, "name": "1998-067XV", "group": "stations", "lat": -49.464636113787485, "lon": 104.03043616424613, "alt_km": 419.6229307454214, "timestamp": "2025-12-06T18:50:08.975859+00:00", "meta": {"OBJECT_NAME": "1998-067XV", "OBJECT_ID": "1998-067XV", "EPOCH": "2025-12-05T18:24:43.911360", "MEAN_MOTION": 15.50399103, "ECCENTRICITY": 0.00053649, "INCLINATION": 51.6292, "RA_OF_ASC_NODE": 176.9805, "ARG_OF_PERICENTER": 189.9534, "MEAN_ANOMALY": 170.135, "EPHEMERIS_TYPE": 0, "CLASSIFICATION_TYPE": "U", "NORAD_CAT_ID": 66909, "ELEMENT_SET_NO": 999, "REV_AT_EPOCH": 53, "BSTAR": 0.0014470913, "MEAN_MOTION_DOT": 0.00084238, "MEAN_MOTION_DDOT": 0}, "tle": {"line1": "1 66909U 98067XV  25339.76717490  .00084238  00000+0  14471-2 0  9996", "line2": "2 66909  51.6292 176.9805 0005364 189.9534 170.1350 15.50399103   531"}}, "geometry": {"type": "Point", "coordinates": [104.03043616424613, -49.464636113787485]}}, {"type": "Feature", "properties": {"norad_id": 66910, "name": "1998-067XW", "group": "stations", "lat": -48.00338972586733, "lon": 110.27234877065435, "alt_km": 420.22708771615726, "timestamp": "2025-12-06T18:50:08.975869+00:00", "meta": {"OBJECT_NAME": "1998-067XW", "OBJECT_ID": "1998-067XW", "EPOCH": "2025-12-06T00:35:02.981184", "MEAN_MOTION": 15.50697107, "ECCENTRICITY": 0.00063134, "INCLINATION": 51.6293, "RA_OF_ASC_NODE": 175.6976, "ARG_OF_PERICENTER": 176.991, "MEAN_ANOMALY": 183.1118, "EPHEMERIS_TYPE": 0, "CLASSIFICATION_TYPE": "U", "NORAD_CAT_ID": 66910, "ELEMENT_SET_NO": 999, "REV_AT_EPOCH": 57, "BSTAR": 0.0012769475, "MEAN_MOTION_DOT": 0.00075, "MEAN_MOTION_DDOT": 0}, "tle": {"line1": "1 66910U 98067XW  25340.02434006  .00075000  00000+0  12769-2 0  9993", "line2": "2 66910  51.6293 175.6976 0006313 176.9910 183.1118 15.50697107   573"}}, "geometry": {"type": "Point", "coordinates": [110.27234877065435, -48.00338972586733]}}, {"type": "Feature", "properties": {"norad_id": 66911, "name": "1998-067XX", "group": "stations", "lat": -47.80882331070635, "lon": 110.98559668372631, "alt_km": 420.00155728500613, "timestamp": "2025-12-06T18:50:08.975879+00:00", "meta": {"OBJECT_NAME": "1998-067XX", "OBJECT_ID": "1998-067XX", "EPOCH": "2025-12-06T00:34:57.951840", "MEAN_MOTION": 15.50761209, "ECCENTRICITY": 0.00062252, "INCLINATION": 51.6293, "RA_OF_ASC_NODE": 175.6973, "ARG_OF_PERICENTER": 177.1118, "MEAN_ANOMALY": 182.9908, "EPHEMERIS_TYPE": 0, "CLASSIFICATION_TYPE": "U", "NORAD_CAT_ID": 66911, "ELEMENT_SET_NO": 999, "REV_AT_EPOCH": 56, "BSTAR": 0.0014212486, "MEAN_MOTION_DOT": 0.00083811, "MEAN_MOTION_DDOT": 0}, "tle": {"line1": "1 66911U 98067XX  25340.02428185  .00083811  00000+0  14212-2 0  9999", "line2": "2 66911  51.6293 175.6973 0006225 177.1118 182.9908 15.50761209   564"}}, "geometry": {"type": "Point", "coordinates": [110.98559668372631, -47.80882331070635]}}, {"type": "Feature", "properties": {"norad_id": 66912, "name": "1998-067XY", "group": "stations", "lat": -49.966013419915015, "lon": 101.35460893840383, "alt_km": 420.2174506559104, "timestamp": "2025-12-06T18:50:08.975889+00:00", "meta": {"OBJECT_NAME": "1998-067XY", "OBJECT_ID": "1998-067XY", "EPOCH": "2025-12-06T00:36:19.370880", "MEAN_MOTION": 15.50259838, "ECCENTRICITY": 0.000539, "INCLINATION": 51.6295, "RA_OF_ASC_NODE": 175.703, "ARG_OF_PERICENTER": 190.1033, "MEAN_ANOMALY": 169.9848, "EPHEMERIS_TYPE": 0, "CLASSIFICATION_TYPE": "U", "NORAD_CAT_ID": 66912, "ELEMENT_SET_NO": 999, "REV_AT_EPOCH": 56, "BSTAR": 0.001060792, "MEAN_MOTION_DOT": 0.00061143, "MEAN_MOTION_DDOT": 0}, "tle": {"line1": "1 66912U 98067XY  25340.02522420  .00061143  00000+0  10608-2 0  9996", "line2": "2 66912  51.6295 175.7030 0005390 190.1033 169.9848 15.50259838   563"}}, "geometry": {"type": "Point", "coordinates": [101.35460893840383, -49.966013419915015]}}]}